[{"OBJECT_NAME":"ICEYE-X6","OBJECT_ID":"2020-068M","EPOCH":"2026-03-09T22:38:15.311328","MEAN_MOTION":15.03906063,"ECCENTRICITY":0.00090855,"INCLINATION":98.0946,"RA_OF_ASC_NODE":57.9399,"ARG_OF_PERICENTER":68.4739,"MEAN_ANOMALY":291.7454,"EPHEMERIS_TYPE":0,"CLASSIFICATION_TYPE":"U","NORAD_CAT_ID":46497,"ELEMENT_SET_NO":999,"REV_AT_EPOCH":29831,"BSTAR":0.00025875904,"MEAN_MOTION_DOT":3.502e-5,"MEAN_MOTION_DDOT":0},{"OBJECT_NAME":"PEGASUS DEB","OBJECT_ID":"1994-029AFD","EPOCH":"2026-03-09T13:52:28.077600","MEAN_MOTION":14.64924575,"ECCENTRICITY":0.0184481,"INCLINATION":81.9461,"RA_OF_ASC_NODE":171.1004,"ARG_OF_PERICENTER":322.7223,"MEAN_ANOMALY":96.435,"EPHEMERIS_TYPE":0,"CLASSIFICATION_TYPE":"U","NORAD_CAT_ID":39318,"ELEMENT_SET_NO":999,"REV_AT_EPOCH":26349,"BSTAR":0.00019214,"MEAN_MOTION_DOT":1.341e-5,"MEAN_MOTION_DDOT":0}]
